     2.11           N: GPS NAV DATA                         RINEX VERSION / TYPE
teqc  2018Dec12     gpsops              20220215 01:04:02UTCPGM / RUN BY / DATE
Linux 2.6.32-573.12.1.x86_64|x86_64|gcc -static|Linux 64|=+ COMMENT
CHPI                                    MARKER NAME         COMMENT
41609M003                               MARKER NUMBER       COMMENT
4164613.9484 -4162456.9866 -2445028.7316                    COMMENT
                                                            COMMENT
This data is provided as a public service by NASA/JPL.      COMMENT
No warranty is expressed or implied regarding suitability   COMMENT
for use.  For further information, contact:                 COMMENT
Dave Stowers, NASA/JPL m/s 238-600                          COMMENT
4800 Oak Grove Drive, Pasadena CA 91109 USA                 COMMENT
                                                            END OF HEADER
 9 22  2 14 22  0  0.0-3.541507758200D-04 1.591615728103D-12 0.000000000000D+00
    3.200000000000D+01-3.743750000000D+01 4.308750905342D-09 2.567088264570D+00
   -1.840293407440D-06 2.259902772494D-03 1.084432005882D-05 5.153624956131D+03
    1.656000000000D+05 1.676380634308D-08 1.529305755209D-01 4.284083843231D-08
    9.545726199298D-01 1.670937500000D+02 1.869263613373D+00-7.720678740117D-09
    4.457328522767D-10 1.000000000000D+00 2.197000000000D+03 0.000000000000D+00
    2.000000000000D+00 0.000000000000D+00 1.396983861923D-09 3.200000000000D+01
    1.584180000000D+05 4.000000000000D+00
16 22  2 14 22  0  0.0-4.694722592831D-04-4.888534022029D-12 0.000000000000D+00
    8.800000000000D+01-4.093750000000D+00 4.327323107520D-09 3.044050994611D+00
   -3.483146429062D-07 1.275901973713D-02 9.629875421524D-06 5.153603975296D+03
    1.656000000000D+05-8.009374141693D-08 2.356385197656D+00-2.235174179077D-07
    9.702097937037D-01 1.990312500000D+02 7.083281938096D-01-7.570672491754D-09
   -6.100254100069D-10 1.000000000000D+00 2.197000000000D+03 0.000000000000D+00
    2.000000000000D+00 0.000000000000D+00-1.024454832077D-08 8.800000000000D+01
    1.584180000000D+05 4.000000000000D+00
22 22  2 14 22  0  0.0 2.136379480362D-04 5.684341886081D-12 0.000000000000D+00
    3.300000000000D+01-2.668750000000D+01 4.158744656979D-09 1.987356831218D+00
   -1.370906829834D-06 1.288759335876D-02 1.139566302299D-05 5.153660259247D+03
    1.656000000000D+05 1.676380634308D-08 2.541483252693D-01-2.942979335785D-07
    9.616931820383D-01 1.578750000000D+02-1.872721967804D+00-7.616745839466D-09
    6.307405585903D-10 1.000000000000D+00 2.197000000000D+03 0.000000000000D+00
    2.000000000000D+00 0.000000000000D+00-9.778887033463D-09 3.300000000000D+01
    1.584180000000D+05 4.000000000000D+00
17 22  2 14 22  0  0.0 5.751522257924D-04 5.002220859751D-12 0.000000000000D+00
    6.200000000000D+01 1.027500000000D+02 3.848731743697D-09 2.111102590434D+00
    5.267560482025D-06 1.361278747208D-02 9.255483746529D-06 5.153759866714D+03
    1.656000000000D+05 1.844018697739D-07-2.908447111102D+00-1.173466444016D-07
    9.801984681492D-01 2.033125000000D+02-1.498480134375D+00-7.456382016812D-09
   -4.535903224290D-11 1.000000000000D+00 2.197000000000D+03 0.000000000000D+00
    2.000000000000D+00 0.000000000000D+00-1.117587089539D-08 6.200000000000D+01
    1.584180000000D+05 4.000000000000D+00
 8 22  2 14 22  0  0.0-5.620066076517D-05-1.477928890381D-12 0.000000000000D+00
    5.900000000000D+01 1.207500000000D+02 4.239819462642D-09 2.202415280282D+00
    6.329268217087D-06 7.290936191566D-03 1.050345599651D-05 5.153727933884D+03
    1.656000000000D+05-1.061707735062D-07-2.990283345327D+00 1.490116119385D-07
    9.650926920530D-01 1.804375000000D+02 1.039642219100D-01-7.825325956236D-09
   -4.321608583773D-11 1.000000000000D+00 2.197000000000D+03 0.000000000000D+00
    2.800000000000D+00 0.000000000000D+00 5.122274160385D-09 5.900000000000D+01
    1.584480000000D+05 4.000000000000D+00
 7 22  2 14 22  0  0.0 3.103041090071D-04 2.728484105319D-12 0.000000000000D+00
    9.500000000000D+01 2.040625000000D+01 5.225574809023D-09-7.321189151658D-01
    1.372769474983D-06 1.554301287979D-02 5.086883902550D-06 5.153682001114D+03
    1.656000000000D+05 9.126961231232D-08 1.224696699659D+00 3.054738044739D-07
    9.506299971894D-01 2.757812500000D+02-2.290890991617D+00-8.469281350992D-09
    3.121558596874D-10 1.000000000000D+00 2.197000000000D+03 0.000000000000D+00
    2.800000000000D+00 0.000000000000D+00-1.117587089539D-08 9.500000000000D+01
    1.592880000000D+05 4.000000000000D+00
 6 22  2 14 22  0  0.0 2.016662620008D-04 1.193711796077D-11 0.000000000000D+00
    2.800000000000D+01 4.534375000000D+01 4.145529820814D-09 2.672037982707D-01
    2.292916178703D-06 2.696147304960D-03 1.573935151100D-06 5.153666088104D+03
    1.656000000000D+05 1.117587089539D-08-1.918931096805D+00-1.676380634308D-08
    9.860333812767D-01 3.641250000000D+02-9.595043493789D-01-8.172126116141D-09
    4.035882396416D-11 1.000000000000D+00 2.197000000000D+03 0.000000000000D+00
    2.000000000000D+00 0.000000000000D+00 3.725290298462D-09 2.800000000000D+01
    1.603080000000D+05 4.000000000000D+00
 7 22  2 14 21 59 44.0 3.103013150394D-04 2.728484105319D-12 0.000000000000D+00
    5.000000000000D+00 2.040625000000D+01 5.225931966757D-09-7.344526703417D-01
    1.370906829834D-06 1.554300996941D-02 5.086883902550D-06 5.153682006836D+03
    1.655840000000D+05 9.126961231232D-08 1.224696835710D+00 3.054738044739D-07
    9.506299723198D-01 2.757812500000D+02-2.290890994542D+00-8.469281350992D-09
    3.121558596874D-10 1.000000000000D+00 2.197000000000D+03 0.000000000000D+00
    2.000000000000D+00 0.000000000000D+00-1.117587089539D-08 5.000000000000D+00
    1.606560000000D+05 4.000000000000D+00
30 22  2 14 22  0  0.0-5.133878439665D-04-2.273736754432D-12 0.000000000000D+00
    6.300000000000D+01 1.893750000000D+01 5.498800475683D-09-6.959182026894D-01
    1.054257154465D-06 5.509916809388D-03 4.762783646584D-06 5.153569036484D+03
    1.656000000000D+05 9.313225746155D-08 1.237840785997D+00 4.284083843231D-08
    9.357888951579D-01 2.716250000000D+02-2.743776440982D+00-8.509997332690D-09
    3.210848030423D-10 1.000000000000D+00 2.197000000000D+03 0.000000000000D+00
    2.000000000000D+00 0.000000000000D+00 3.725290298462D-09 6.300000000000D+01
    1.627980000000D+05 4.000000000000D+00
 3 22  2 15  0  0  0.0-1.217015087605D-04-1.716671249596D-11 0.000000000000D+00
    1.020000000000D+02-1.361562500000D+02 4.234462096629D-09-1.651161754886D-01
   -7.070600986481D-06 3.892284352332D-03 5.662441253662D-06 5.153685640335D+03
    1.728000000000D+05 1.676380634308D-08-8.751478598668D-01 8.754432201385D-08
    9.725645534574D-01 2.749062500000D+02 9.570532008788D-01-8.121052560151D-09
   -3.614436270064D-10 1.000000000000D+00 2.197000000000D+03 0.000000000000D+00
    2.800000000000D+00 0.000000000000D+00 1.862645149231D-09 1.020000000000D+02
    1.656180000000D+05 4.000000000000D+00
 4 22  2 15  0  0  0.0-1.895129680634D-04 2.273736754432D-12 0.000000000000D+00
    8.800000000000D+01-3.112500000000D+01 4.200174954146D-09 2.772775010260D+00
   -1.579523086548D-06 1.697004190646D-03 1.142732799053D-05 5.153658050537D+03
    1.728000000000D+05-9.313225746155D-09 2.058029511247D-01 2.235174179077D-08
    9.615648241431D-01 1.592500000000D+02-3.064267603754D+00-7.703178011141D-09
    4.882346226460D-10 1.000000000000D+00 2.197000000000D+03 0.000000000000D+00
    2.000000000000D+00 0.000000000000D+00-4.190951585770D-09 6.000000000000D+02
    1.656180000000D+05 4.000000000000D+00
 7 22  2 14 23 59 44.0 3.103208728135D-04 2.728484105319D-12 0.000000000000D+00
    6.000000000000D+00 2.043750000000D+01 5.179501461312D-09 3.157205649717D-01
    1.167878508568D-06 1.554297655821D-02 5.297362804413D-06 5.153681901932D+03
    1.727840000000D+05-1.341104507446D-07 1.224635736937D+00 2.682209014893D-07
    9.506320452747D-01 2.741250000000D+02-2.290883317148D+00-8.486067764499D-09
    2.550106222160D-10 1.000000000000D+00 2.197000000000D+03 0.000000000000D+00
    2.000000000000D+00 0.000000000000D+00-1.117587089539D-08 6.000000000000D+00
    1.656180000000D+05 4.000000000000D+00
 9 22  2 15  0  0  0.0-3.541391342878D-04 1.591615728103D-12 0.000000000000D+00
    3.300000000000D+01-4.281250000000D+01 4.273749447390D-09-2.665977926487D+00
   -2.171844244003D-06 2.257949905470D-03 1.157075166702D-05 5.153628641129D+03
    1.728000000000D+05 3.352761268616D-08 1.528751148336D-01 9.313225746155D-09
    9.545756979094D-01 1.539687500000D+02 1.869352197451D+00-7.726393263864D-09
    4.178745490094D-10 1.000000000000D+00 2.197000000000D+03 0.000000000000D+00
    2.000000000000D+00 0.000000000000D+00 1.396983861923D-09 3.300000000000D+01
    1.656180000000D+05 4.000000000000D+00
16 22  2 15  0  0  0.0-4.695076495409D-04-4.888534022029D-12 0.000000000000D+00
    8.900000000000D+01-7.000000000000D+00 4.359467303597D-09-2.188973620315D+00
   -7.078051567078D-07 1.275990356226D-02 8.961185812950D-06 5.153601877213D+03
    1.728000000000D+05 2.179294824600D-07 2.356328939678D+00-1.229345798492D-07
    9.702058101777D-01 2.083437500000D+02 7.083907057620D-01-7.691391805913D-09
   -3.835874065266D-10 1.000000000000D+00 2.197000000000D+03 0.000000000000D+00
    2.800000000000D+00 0.000000000000D+00-1.024454832077D-08 8.900000000000D+01
    1.656180000000D+05 4.000000000000D+00
 6 22  2 15  0  0  0.0 2.017519436777D-04 1.193711796077D-11 0.000000000000D+00
    3.700000000000D+01 4.925000000000D+01 4.220175787261D-09 1.317173793301D+00
    2.415850758553D-06 2.696216688491D-03 1.041218638420D-06 5.153666955948D+03
    1.728000000000D+05-1.303851604462D-08-1.918990001202D+00-5.587935447693D-09
    9.860335407348D-01 3.689062500000D+02-9.592910486084D-01-8.198198630737D-09
    3.750156209059D-11 1.000000000000D+00 2.197000000000D+03 0.000000000000D+00
    2.000000000000D+00 0.000000000000D+00 3.725290298462D-09 3.700000000000D+01
    1.656180000000D+05 4.000000000000D+00
